[{"OBJECT_NAME":"YAOGAN-30 02B","OBJECT_ID":"2017-058B","EPOCH":"2026-03-09T22:20:48.449184","MEAN_MOTION":15.02255785,"ECCENTRICITY":0.00019399,"INCLINATION":34.9967,"RA_OF_ASC_NODE":274.9762,"ARG_OF_PERICENTER":191.875,"MEAN_ANOMALY":168.1912,"EPHEMERIS_TYPE":0,"CLASSIFICATION_TYPE":"U","NORAD_CAT_ID":42946,"ELEMENT_SET_NO":999,"REV_AT_EPOCH":46092,"BSTAR":0.0003113928,"MEAN_MOTION_DOT":4.165e-5,"MEAN_MOTION_DDOT":0},{"OBJECT_NAME":"YAOGAN-30 09B","OBJECT_ID":"2021-039B","EPOCH":"2026-03-09T22:20:48.922656","MEAN_MOTION":15.02072563,"ECCENTRICITY":0.00040485,"INCLINATION":34.9947,"RA_OF_ASC_NODE":275.8048,"ARG_OF_PERICENTER":16.716,"MEAN_ANOMALY":343.368,"EPHEMERIS_TYPE":0,"CLASSIFICATION_TYPE":"U","NORAD_CAT_ID":48424,"ELEMENT_SET_NO":999,"REV_AT_EPOCH":26460,"BSTAR":0.00030086598,"MEAN_MOTION_DOT":4.004e-5,"MEAN_MOTION_DDOT":0}]
